H1 CPF  1  HTS 2022 11  7 12  8111 larets           NONE
H2  0304206 5557    27944 2022 11 07  0  0  0 2022 11 12  0  0  0   180 1 1  0 0 0
H5  0.0560 
H9 
10 0 59892  70920.00000  0    -777412.713    6923821.987    1207107.728
10 0 59892  71100.00000  0    -457384.787    6598769.326    2493746.268
10 0 59892  71280.00000  0    -132548.402    6025745.758    3689210.521
10 0 59892  71460.00000  0     179073.945    5225646.858    4749785.798
10 0 59892  71640.00000  0     460600.063    4228094.059    5636704.919
10 0 59892  71820.00000  0     697117.722    3070286.565    6317552.696
10 0 59892  72000.00000  0     876404.030    1795581.734    6767424.688
10 0 59892  72180.00000  0     989503.525     451851.096    6969810.944
10 0 59892  72360.00000  0    1031144.628    -910320.249    6917181.598
10 0 59892  72540.00000  0     999978.204   -2239530.026    6611270.531
10 0 59892  72720.00000  0     898628.200   -3485499.733    6063045.496
10 0 59892  72900.00000  0     733550.273   -4600994.114    5292353.440
10 0 59892  73080.00000  0     514705.672   -5543644.158    4327247.532
10 0 59892  73260.00000  0     255062.162   -6277618.480    3203013.109
10 0 59892  73440.00000  0     -30064.851   -6775070.085    1960896.934
10 0 59892  73620.00000  0    -323801.228   -7017274.120     646580.698
10 0 59892  73800.00000  0    -608593.589   -6995400.005    -691543.769
10 0 59892  73980.00000  0    -867132.465   -6710859.402   -2004229.928
10 0 59892  74160.00000  0   -1083264.453   -6175208.618   -3243259.819
10 0 59892  74340.00000  0   -1242847.076   -5409624.169   -4363269.419
10 0 59892  74520.00000  0   -1334501.014   -4443979.803   -5323434.584
10 0 59892  74700.00000  0   -1350221.131   -3315587.650   -6088941.638
10 0 59892  74880.00000  0   -1285820.387   -2067679.846   -6632199.598
10 0 59892  75060.00000  0   -1141190.973    -747702.442   -6933763.724
10 0 59892  75240.00000  0    -920377.792     594502.039   -6982956.327
10 0 59892  75420.00000  0    -631462.850    1908557.408   -6778186.627
10 0 59892  75600.00000  0    -286267.032    3145405.849   -6326975.891
10 0 59892  75780.00000  0     100120.738    4259103.942   -5645694.507
10 0 59892  75960.00000  0     509975.953    5208512.829   -4759007.935
10 0 59892  76140.00000  0     923709.221    5958826.671   -3699039.392
10 0 59892  76320.00000  0    1320748.881    6482885.175   -2504259.618
10 0 59892  76500.00000  0    1680499.991    6762210.403   -1218129.344
10 0 59892  76680.00000  0    1983337.198    6787716.346     112468.598
10 0 59892  76860.00000  0    2211581.291    6560043.522    1438951.125
10 0 59892  77040.00000  0    2350407.197    6089498.097    2712834.071
10 0 59892  77220.00000  0    2388638.567    5395599.618    3887532.929
10 0 59892  77400.00000  0    2319387.819    4506258.362    4920092.377
10 0 59892  77580.00000  0    2140504.785    3456615.807    5772770.361
10 0 59892  77760.00000  0    1854814.179    2287614.713    6414400.787
10 0 59892  77940.00000  0    1470138.555    1044378.712    6821506.470
10 0 59892  78120.00000  0     999101.004    -225543.085    6979130.691
10 0 59892  78300.00000  0     458716.954   -1473990.658    6881369.665
10 0 59892  78480.00000  0    -130214.856   -2654016.434    6531602.935
10 0 59892  78660.00000  0    -743906.669   -3721658.865    5942402.097
10 0 59892  78840.00000  0   -1356529.432   -4637598.847    5135115.786
10 0 59892  79020.00000  0   -1941286.078   -5368647.405    4139151.943
10 0 59892  79200.00000  0   -2471580.473   -5889020.298    2990951.695
10 0 59892  79380.00000  0   -2922224.345   -6181322.654    1732664.789
10 0 59892  79560.00000  0   -3270619.928   -6237188.379     410580.704
10 0 59892  79740.00000  0   -3497857.119   -6057542.361    -926624.042
10 0 59892  79920.00000  0   -3589665.703   -5652464.536   -2229747.364
10 0 59892  80100.00000  0   -3537169.902   -5040657.880   -3450943.828
10 0 59892  80280.00000  0   -3337402.992   -4248551.282   -4545534.157
10 0 59892  80460.00000  0   -2993557.715   -3309097.402   -5473655.387
10 0 59892  80640.00000  0   -2514970.957   -2260340.035   -6201689.036
10 0 59892  80820.00000  0   -1916850.931   -1143825.951   -6703424.776
10 0 59892  81000.00000  0   -1219762.337      -2934.940   -6960931.116
10 0 59892  81180.00000  0    -448900.113    1118799.826   -6965119.395
10 0 59892  81360.00000  0     366820.528    2179322.910   -6716012.084
10 0 59892  81540.00000  0    1195831.294    3139597.719   -6222720.120
10 0 59892  81720.00000  0    2005110.656    3965019.519   -5503128.689
10 0 59892  81900.00000  0    2761475.992    4626654.104   -4583290.231
10 0 59892  82080.00000  0    3432926.466    5102265.971   -3496538.058
10 0 59892  82260.00000  0    3989987.650    5377097.099   -2282330.553
10 0 59892  82440.00000  0    4407002.251    5444356.456    -984852.536
10 0 59892  82620.00000  0    4663301.661    5305392.948     348583.471
10 0 59892  82800.00000  0    4744197.198    4969534.645    1669277.507
10 0 59892  82980.00000  0    4641736.134    4453600.362    2928945.968
10 0 59892  83160.00000  0    4355187.513    3781108.071    4081520.022
10 0 59892  83340.00000  0    3891222.108    2981211.452    5084854.176
10 0 59892  83520.00000  0    3263786.502    2087428.318    5902272.124
10 0 59892  83700.00000  0    2493672.239    1136222.189    6503893.280
10 0 59892  83880.00000  0    1607811.942     165506.113    6867694.119
10 0 59892  84060.00000  0     638330.016    -786865.176    6980287.544
10 0 59892  84240.00000  0    -378622.076   -1684566.760    6837407.226
10 0 59892  84420.00000  0   -1404209.795   -2494191.390    6444076.419
10 0 59892  84600.00000  0   -2398391.275   -3186501.244    5814456.354
10 0 59892  84780.00000  0   -3321478.348   -3737505.218    4971387.316
10 0 59892  84960.00000  0   -4135747.072   -4129330.536    3945613.848
10 0 59892  85140.00000  0   -4807018.986   -4350841.658    2774693.733
10 0 59892  85320.00000  0   -5306138.728   -4397979.769    1501631.542
10 0 59892  85500.00000  0   -5610281.230   -4273802.010     173274.551
10 0 59892  85680.00000  0   -5704012.348   -3988208.157   -1161466.342
10 0 59892  85860.00000  0   -5580041.550   -3557367.287   -2453491.260
10 0 59892  86040.00000  0   -5239618.195   -3002871.729   -3655388.866
10 0 59892  86220.00000  0   -4692557.874   -2350673.453   -4723219.690
10 0 59893      0.00000  0   -3956909.349   -1629865.610   -5618131.388
10 0 59893    180.00000  0   -3058286.846    -871375.100   -6307744.525
10 0 59893    360.00000  0   -2028910.535    -106631.003   -6767264.202
10 0 59893    540.00000  0    -906404.640     633727.988   -6980294.320
10 0 59893    720.00000  0     267590.840    1321056.827   -6939348.711
10 0 59893    900.00000  0    1448946.476    1929784.124   -6646068.655
10 0 59893   1080.00000  0    2592672.831    2438340.405   -6111151.438
10 0 59893   1260.00000  0    3654606.658    2829909.831   -5353980.489
10 0 59893   1440.00000  0    4593095.887    3092980.862   -4401968.311
10 0 59893   1620.00000  0    5370636.250    3221682.234   -3289622.495
10 0 59893   1800.00000  0    5955392.134    3215887.389   -2057343.990
10 0 59893   1980.00000  0    6322535.435    3081082.487    -749991.420
10 0 59893   2160.00000  0    6455334.115    2827994.780     584747.604
10 0 59893   2340.00000  0    6345928.578    2471994.801    1898113.224
10 0 59893   2520.00000  0    5995752.904    2032304.731    3142082.575
10 0 59893   2700.00000  0    5415576.407    1531051.062    4271158.864
10 0 59893   2880.00000  0    4625157.439     992208.144    5244056.252
10 0 59893   3060.00000  0    3652536.311     440489.916    6025208.727
10 0 59893   3240.00000  0    2533001.273     -99757.187    6586054.557
10 0 59893   3420.00000  0    1307779.925    -605605.656    6906049.419
10 0 59893   3600.00000  0      22511.550   -1056504.575    6973397.532
10 0 59893   3780.00000  0   -1274454.625   -1435109.989    6785477.002
10 0 59893   3960.00000  0   -2533871.762   -1727956.343    6348948.978
10 0 59893   4140.00000  0   -3707460.118   -1925943.641    5679555.313
10 0 59893   4320.00000  0   -4749778.971   -2024630.034    4801607.628
10 0 59893   4500.00000  0   -5620036.509   -2024318.130    3747150.113
10 0 59893   4680.00000  0   -6283751.027   -1929921.864    2554816.685
10 0 59893   4860.00000  0   -6714191.986   -1750620.806    1268421.238
10 0 59893   5040.00000  0   -6893530.376   -1499317.201     -64683.961
10 0 59893   5220.00000  0   -6813618.524   -1191915.746   -1395414.027
10 0 59893   5400.00000  0   -6476355.103    -846466.525   -2674832.194
10 0 59893   5580.00000  0   -5893617.992    -482221.966   -3856013.659
10 0 59893   5760.00000  0   -5086775.292    -118657.741   -4895808.234
10 0 59893   5940.00000  0   -4085807.736     225492.209   -5756420.701
10 0 59893   6120.00000  0   -2928100.352     533132.511   -6406749.468
10 0 59893   6300.00000  0   -1656973.183     789593.494   -6823442.302
10 0 59893   6480.00000  0    -320025.039     983278.310   -6991657.237
10 0 59893   6660.00000  0    1032646.634    1106150.206   -6905521.455
10 0 59893   6840.00000  0    2350291.759    1154045.654   -6568300.180
10 0 59893   7020.00000  0    3583379.139    1126807.487   -5992270.724
10 0 59893   7200.00000  0    4685429.466    1028233.721   -5198298.181
10 0 59893   7380.00000  0    5614756.160     865844.495   -4215129.693
10 0 59893   7560.00000  0    6336061.380     650476.471   -3078410.625
10 0 59893   7740.00000  0    6821818.855     395717.481   -1829441.162
10 0 59893   7920.00000  0    7053383.858     117204.685    -513703.637
10 0 59893   8100.00000  0    7021763.608    -168182.817     820794.109
10 0 59893   8280.00000  0    6728006.048    -443197.031    2125289.250
10 0 59893   8460.00000  0    6183181.317    -691117.380    3352078.857
10 0 59893   8640.00000  0    5407947.924    -896621.858    4456295.491
10 0 59893   8820.00000  0    4431734.659   -1046587.911    5397562.928
99
